#dP2022  2 24  0  0  0.00000000      97 __u+U IGS14 FIT  IAC
## 2198 345600.00000000   900.00000000 59634 0.0000000000000
+  125   C01C02C03C04C06C07C08C09C10C11C12C13C14C16C19C20C21
+        C22C23C24C25C26C27C28C29C30C32C33C34C35C36C37C38C39
+        C40C41C42C43C44C45C46C59C60E01E02E03E04E05E07E08E09
+        E10E11E12E13E14E15E18E19E21E24E25E26E27E30E31E33E34
+        E36G01G02G03G04G05G06G07G08G09G10G11G12G13G14G15G16
+        G17G18G19G20G21G22G23G24G25G26G27G28G29G30G31G32J01
+        J02J03J07R01R02R03R04R05R07R08R09R11R12R13R14R15R17
+        R18R19R20R21R22R24  0  0  0  0  0  0  0  0  0  0  0
++         0 15 15  0  9  9  8  9  9  8  8  8  8  9  7  7  7
++         7  7  7  7  7  6  6  6  6  6  7  7  7  7  7  7  7
++         7  7  7  7  7  7  7  0  0  4  4  4  4  4  4  6  4
++         5  4  4  5  5  4  4  4  4  4  4  4  5  4  4  4  4
++         4  3  3  3  3  3  3  3  3  3  3  0  3  4  3  4  4
++         3  3  3  3  4  4  3  3  3  3  3  4  4  3  3  0  8
++         8  8  0  6  5  6  5  5  5  5  5  7  6  7  6  5  5
++         5  7  6  6  7  5  0  0  0  0  0  0  0  0  0  0  0
%c M  cc GPS ccc cccc cccc cccc cccc ccccc ccccc ccccc ccccc
%c cc cc ccc ccc cccc cccc cccc cccc ccccc ccccc ccccc ccccc
%f  1.2500000  1.025000000  0.00000000000  0.000000000000000
%f  0.0000000  0.000000000  0.00000000000  0.000000000000000
%i    0    0    0    0      0      0      0      0         0
%i    0    0    0    0      0      0      0      0         0
/* INFORMATION & ANALYSIS CENTER (IAC)            FINAL DATA
/* S/V CLOCKS ARE ALIGNED TO GNSS TIME                      
/* G:C1WC2W R:C1PC2P E:C1XC5X C:C2IC6I J:C1CC2S             
/* PCV:IGS14_2196 OL/AL:FES2004  NONE     YN ORB:CoN CLK:CoN
*  2022 02 24 17 15  0.00000000
PC01      0.000000      0.000000      0.000000 999999.999999
PC02   4376.340092  41959.268566   1002.310261    284.996162
PC03 -14871.082837  39438.194884   1270.150259    886.879363
PC04      0.000000      0.000000      0.000000 999999.999999
PC06 -17394.552643  37449.364260  -9062.370731    107.619154
PC07  -3208.389128  33727.774843 -25016.286124    -93.827022
PC08 -12286.171005  19770.294381  35145.769530    156.933158
PC09 -10902.681628  36544.674989 -18182.777248   -551.645517
PC10   3706.944440  36523.284110 -20078.620539    139.617106
PC11 -19908.693369   9609.634407 -16948.822200   -188.199426
PC12 -12502.947643  -8870.542514 -23279.460970    681.296463
PC13  -2819.626804  22387.226006  35743.466042   -107.111063
PC14 -17363.819920   -527.147390  21875.863280    453.055238
PC16 -18030.350944  37382.549325  -7981.859003     89.668119
PC19  12507.588137  -9952.197754 -22846.605703    893.094539
PC20  18975.458497   9011.459002 -18339.496452   -830.737972
PC21 -14412.482566 -23776.471781   2527.826712   -936.521982
PC22  -1422.689174 -23932.079858 -14296.895116   -958.531348
PC23  -5894.316259  15749.168180 -22272.485159   -953.733914
PC24 -27054.990863  -4743.512938   4819.022782   -944.437421
PC25 -22852.239996   8988.886953 -13244.135162   -774.634831
PC26 -16099.832064 -13506.087915  18328.548226    774.544705
PC27   6155.475982  17188.543196  21092.027007    682.553894
PC28  -9112.010354  24893.399614   8726.897035     36.533663
PC29  18623.569036 -18657.565336   9138.138060    519.569225
PC30  17717.778229   -468.240178  21542.996745    494.003675
PC32  14536.027694  23690.969847  -2427.844271   -969.635041
PC33 -12559.650320   9933.359647  22862.679621   -959.843498
PC34 -18133.386673   1485.279757 -21176.223083   -461.702257
PC35   8774.809164 -25231.630984  -8006.699997    154.736811
PC36  23398.292607  -8165.446449  12855.001440   -917.169920
PC37  14747.028541  14245.994831 -18932.730505   -954.631142
PC38 -19243.413473  20560.799874  31365.490214    213.738934
PC39 -20321.937823  37037.738488   -773.661384     34.816980
PC40  -5868.427410  30201.837491 -28772.909571    247.204723
PC41   1078.672420  23743.390860  14680.285694   -943.341672
PC42 -19132.633908  -9942.351657  17770.875051   -933.132835
PC43 -18924.741022  18094.544640  -9701.164636   -939.731629
PC44  -6750.035975 -17144.048216 -20956.426751    575.476643
PC45   5641.651068 -15668.458657  22390.607144    689.107125
PC46  27443.842256   3805.516534  -3525.165954   -185.968789
PC59      0.000000      0.000000      0.000000 999999.999999
PC60      0.000000      0.000000      0.000000 999999.999999
PE01  -7738.395398  14753.492334 -24471.057922   -585.363889
PE02   7611.856315 -14821.178772  24458.186248    282.381041
PE03   8152.429758 -26417.524356 -10588.459815   -531.164544
PE04   4640.488885  28225.625721  -7613.963392   -971.705959
PE05  16404.001887  -9032.659033 -22920.633517   -205.980026
PE07 -14998.560448 -13359.195955  21749.824232   -642.332605
PE08  -4970.427541 -28058.232104   8028.608808   -485.147458
PE09  14987.761591  13046.797998 -21932.740039   5349.022747
PE10  12074.401192  11401.953738  24499.906466   -497.162940
PE11  20851.276573   3847.404730  20641.777115   4376.070905
PE12   1820.682404  16969.353305  24191.691090   4743.183920
PE13 -20382.531566  -4241.116125 -21037.447799    426.804389
PE14 -11849.302921 -22739.586798 -19964.849881  -1757.240868
PE15  -1694.673904 -16944.740785 -24199.047356    761.347918
PE18   8572.496470  16166.997761  14629.113139  -1754.153792
PE19  -9542.434600  24978.818543  12708.031452   -323.598556
PE21 -22917.988172    832.231614 -18714.108899   -719.072435
PE24  25371.458220  15266.934884    619.012986  -1408.440682
PE25  23072.368048   -599.263279  18541.343538   -564.742364
PE26 -26932.030246  11417.384802  -4531.251563   -843.383594
PE27 -25795.302633 -14377.575663  -1873.433114   -239.703503
PE30 -12365.386835 -21081.040613  16670.021993   -300.481715
PE31  13484.217931  21002.484600 -15921.120743   -492.662822
PE33 -17915.364339  19609.462099  13087.510687   -459.127287
PE34  17708.546687 -19670.982656 -13255.674358   -503.572002
PE36  26967.366472 -10850.985151   5557.298733   -336.914943
PG01    917.398886 -15607.515690 -21694.561402    423.413671
PG02 -19928.236470  15861.436578   8422.059731   -651.420906
PG03  -8690.875356 -20259.524516 -14994.952474   -136.358935
PG04    -91.833627 -25528.545980   7177.846952   -187.572008
PG05  -6914.744181  13669.174517  21526.719312    -72.574581
PG06 -25275.350666   4770.568142  -6711.395005    211.871393
PG07 -16047.900715  -9008.912567  19701.012945    312.518887
PG08   6083.626995 -25400.492559   3605.659650    -57.468853
PG09  -8756.164155 -19194.913165  16044.775593   -352.719569
PG10  22761.301515  10046.033243  -9560.549256   -329.574551
PG11      0.000000      0.000000      0.000000 999999.999999
PG12   4443.517615  20188.287962 -17017.256280   -175.913396
PG13 -13106.138349  20911.466854   9446.366427    267.028726
PG14 -22373.590058 -11118.947407  -9121.350263    -87.614129
PG15  -2761.997418  26081.295530   2492.022045    -81.347656
PG16  11717.441096  -9328.086285  21684.813316   -473.532522
PG17 -14000.762322  -4205.703428 -21743.028118    579.386942
PG18  15687.514084   8653.483840  19637.549285    233.161644
PG19 -15845.736179   4057.891553 -21146.800563    123.206111
PG20 -15526.461994   7803.682365  20022.825942    516.560598
PG21  11112.232781 -17412.820092 -15650.395184    158.553504
PG22  15846.943077  -7925.828459 -19327.278736    218.467796
PG23  20633.315608  16775.923902   1034.725721     -1.624859
PG24  -4448.062264  17869.178854 -19294.313119    272.624142
PG25  16150.031636  19944.180694  -7677.080579    290.091965
PG26  20578.109664   -285.096477  16872.690742    185.949768
PG27  12257.631522 -19022.289300  13375.409118    132.389359
PG28 -20374.568072  -4974.117831 -15639.703279    393.421030
PG29   5145.712913  21312.928041  14905.812633   -484.208195
PG30 -22528.092302  -2884.079934  14036.653457   -515.326728
PG31  25819.712768  -5883.223209  -4335.090941   -166.227572
PG32      0.000000      0.000000      0.000000 999999.999999
PJ01 -26927.448977  23586.869827  27288.397227    230.572222
PJ02 -26636.650763  15222.622605 -24395.370318     -1.563049
PJ03 -27055.947276  32015.791567     63.634383     -0.679427
PJ07      0.000000      0.000000      0.000000 999999.999999
PR01   3000.418058 -18078.424429 -17745.689248      7.127133
PR02  -7396.679093 -24375.681037    276.873891    510.674215
PR03 -12671.331437 -14944.433881  16345.691542     52.064029
PR04 -10535.185941   2509.542688  23124.319433    129.191760
PR05  -2788.819666  18693.007426  17157.301214     88.305085
PR07  12691.894763  14469.675231 -16726.573149     31.997688
PR08  10586.933629  -2644.958249 -22998.120804    -63.723891
PR09  10196.932998  12204.873240 -19907.225277     41.220874
PR11  23300.688011    -50.972831  10374.802182     44.961856
PR12   9192.706093  -8786.989519  22134.867013     17.271381
PR13  -9099.693373 -12018.638045  20553.565687    -18.689052
PR14 -23306.654479  -8276.575309   6270.339864     74.738180
PR15 -23000.499027    199.918363 -11010.484347     97.970687
PR17 -11464.848277  -2782.254426 -22600.002877    504.478453
PR18 -18835.007626  11277.036276 -13022.814027    108.371304
PR19 -17274.929487  18627.501800   2317.142782   -179.383393
PR20  -3765.565432  15946.317276  19578.909454    -65.542548
PR21  12378.678698   1501.750756  22258.606291   -280.608292
PR22  18953.464819 -11727.049696  12298.969466   -166.783677
PR24   2518.212209 -15925.069826 -19749.248727     81.678897
EOF
